{
  "type": "FeatureCollection",
  "name": "Converted_Data",
  "crs": {
    "type": "name",
    "properties": {
      "name": "urn:ogc:def:crs:OGC:1.3:CRS84"
    }
  },
  "features": [
    {
      "type": "Feature",
      "geometry": {
        "type": "Point",
        "coordinates": [
          120.38918682733271,
          23.100990215147448
        ]
      },
      "properties": {
        "案件編號": "115年搶險搶修B工區第001案",
        "完工日期": 1150213,
        "x1": 187430,
        "y1": 2555597,
        "派工時機": "115年02月",
        "搶修類型": "設置交通錐",
        "案件狀態": "已完工",
        "決標金額": 9994,
        "施工廠商": "其功營造工程股份有限公司",
        "監造廠商": "鼎麒水土保持技師事務所",
        "採購網址": "https://web.pcc.gov.tw/tps/atm/AtmAwardWithoutSso/QueryAtmAwardDetail?pkAtmMain=NzEwNjAzNDk=",
        "施工前照片": "https://i.ibb.co/XkF9L2bB/115-B-001-01.jpg",
        "施工後照片": "https://i.ibb.co/bj5733mg/115-B-001-02.jpg"
      }
    },
    {
      "type": "Feature",
      "geometry": {
        "type": "Point",
        "coordinates": [
          120.35044316433996,
          23.104863019874845
        ]
      },
      "properties": {
        "案件編號": "115年搶險搶修B工區第002案",
        "完工日期": 1150227,
        "x1": 183463,
        "y1": 2556043,
        "派工時機": "115年02月",
        "搶修類型": "路面修復-路緣坑洞修補",
        "案件狀態": "已完工",
        "決標金額": 31419,
        "施工廠商": "其功營造工程股份有限公司",
        "監造廠商": "鼎麒水土保持技師事務所",
        "採購網址": "https://web.pcc.gov.tw/tps/atm/AtmAwardWithoutSso/QueryAtmAwardDetail?pkAtmMain=NzEwNjAzNDk=",
        "施工前照片": "https://i.ibb.co/wFPhmLTK/115-B-002-01.jpg",
        "施工後照片": "https://i.ibb.co/RT2qbpfD/115-B-002-02.jpg"
      }
    },
    {
      "type": "Feature",
      "geometry": {
        "type": "Point",
        "coordinates": [
          120.35775322472819,
          23.101118301094626
        ]
      },
      "properties": {
        "案件編號": "115年搶險搶修B工區第003案",
        "完工日期": 1150319,
        "x1": 184210,
        "y1": 2555625,
        "派工時機": "115年03月",
        "搶修類型": "排水溝-掏空填補",
        "案件狀態": "已完工",
        "決標金額": 18541,
        "施工廠商": "其功營造工程股份有限公司",
        "監造廠商": "鼎麒水土保持技師事務所",
        "採購網址": "https://web.pcc.gov.tw/tps/atm/AtmAwardWithoutSso/QueryAtmAwardDetail?pkAtmMain=NzEwNjAzNDk=",
        "施工前照片": "https://i.ibb.co/M5gwYnC7/115-B-003-01.jpg",
        "施工後照片": "https://i.ibb.co/vxgg4kJd/115-B-003-02.jpg"
      }
    },
    {
      "type": "Feature",
      "geometry": {
        "type": "Point",
        "coordinates": [
          120.37981928270005,
          23.098036917725164
        ]
      },
      "properties": {
        "案件編號": "115年搶險搶修B工區第005案",
        "完工日期": 1150609,
        "x1": 186469,
        "y1": 2555274,
        "派工時機": null,
        "搶修類型": "樹木災害-倒樹鋸除",
        "案件狀態": "已完工",
        "決標金額": 34080,
        "施工廠商": "其功營造工程股份有限公司",
        "監造廠商": "鼎麒水土保持技師事務所",
        "採購網址": "https://web.pcc.gov.tw/tps/atm/AtmAwardWithoutSso/QueryAtmAwardDetail?pkAtmMain=NzEwNjAzNDk=",
        "施工前照片": "https://i.ibb.co/m57dh84f/115-B-005-01.jpg",
        "施工後照片": "https://i.ibb.co/ymbsXS1M/115-B-005-02.jpg"
      }
    },
    {
      "type": "Feature",
      "geometry": {
        "type": "Point",
        "coordinates": [
          120.38993746452395,
          23.096893376619843
        ]
      },
      "properties": {
        "案件編號": "115年搶險搶修B工區第006案",
        "完工日期": 1150610,
        "x1": 187505,
        "y1": 2555143,
        "派工時機": null,
        "搶修類型": "樹木災害-倒樹鋸除",
        "案件狀態": "已完工",
        "決標金額": 33635,
        "施工廠商": "其功營造工程股份有限公司",
        "監造廠商": "鼎麒水土保持技師事務所",
        "採購網址": "https://web.pcc.gov.tw/tps/atm/AtmAwardWithoutSso/QueryAtmAwardDetail?pkAtmMain=NzEwNjAzNDk=",
        "施工前照片": "https://i.ibb.co/XfN8Cr4T/115-B-006-01.jpg",
        "施工後照片": "https://i.ibb.co/yc1WKD2W/115-B-006-02.jpg"
      }
    },
    {
      "type": "Feature",
      "geometry": {
        "type": "Point",
        "coordinates": [
          120.38284819576096,
          23.09955684072856
        ]
      },
      "properties": {
        "案件編號": "115年搶險搶修B工區第007案",
        "完工日期": 1150615,
        "x1": 186780,
        "y1": 2555441,
        "派工時機": null,
        "搶修類型": "樹木災害-危竹鋸除",
        "案件狀態": "已完工",
        "決標金額": 12878,
        "施工廠商": "其功營造工程股份有限公司",
        "監造廠商": "鼎麒水土保持技師事務所",
        "採購網址": "https://web.pcc.gov.tw/tps/atm/AtmAwardWithoutSso/QueryAtmAwardDetail?pkAtmMain=NzEwNjAzNDk=",
        "施工前照片": "https://i.ibb.co/hR1Nn97C/115-B-007-01.jpg",
        "施工後照片": "https://i.ibb.co/jk33VM4L/115-B-007-02.jpg"
      }
    },
    {
      "type": "Feature",
      "geometry": {
        "type": "Point",
        "coordinates": [
          120.37371968022966,
          23.093524803146494
        ]
      },
      "properties": {
        "案件編號": "115年搶險搶修B工區第008案",
        "完工日期": 1150617,
        "x1": 185842,
        "y1": 2554777,
        "派工時機": null,
        "搶修類型": "路面修復-路緣坑洞修補",
        "案件狀態": "已完工",
        "決標金額": 26867,
        "施工廠商": "其功營造工程股份有限公司",
        "監造廠商": "鼎麒水土保持技師事務所",
        "採購網址": "https://web.pcc.gov.tw/tps/atm/AtmAwardWithoutSso/QueryAtmAwardDetail?pkAtmMain=NzEwNjAzNDk=",
        "施工前照片": "https://i.ibb.co/DDdb3GJ9/115-B-008-01.jpg",
        "施工後照片": "https://i.ibb.co/MxQzhLMb/115-B-008-02.jpg"
      }
    },
    {
      "type": "Feature",
      "geometry": {
        "type": "Point",
        "coordinates": [
          120.3902741187079,
          23.104489130506547
        ]
      },
      "properties": {
        "案件編號": "115年搶險搶修B工區第009案",
        "完工日期": 1150618,
        "x1": 187543,
        "y1": 2555984,
        "派工時機": null,
        "搶修類型": "路面修復-坑洞填補",
        "案件狀態": "已完工",
        "決標金額": 43744,
        "施工廠商": "其功營造工程股份有限公司",
        "監造廠商": "鼎麒水土保持技師事務所",
        "採購網址": "https://web.pcc.gov.tw/tps/atm/AtmAwardWithoutSso/QueryAtmAwardDetail?pkAtmMain=NzEwNjAzNDk=",
        "施工前照片": "https://i.ibb.co/SXSHZDHv/115-B-009-01.jpg",
        "施工後照片": "https://i.ibb.co/HmkLryW/115-B-009-02.jpg"
      }
    },
    {
      "type": "Feature",
      "geometry": {
        "type": "Point",
        "coordinates": [
          120.3890323841742,
          23.08981014305887
        ]
      },
      "properties": {
        "案件編號": "115年搶險搶修B工區第010案",
        "完工日期": 1150622,
        "x1": 187409,
        "y1": 2554359,
        "派工時機": null,
        "搶修類型": "樹木災害-倒竹鋸除",
        "案件狀態": "已完工",
        "決標金額": 12878,
        "施工廠商": "其功營造工程股份有限公司",
        "監造廠商": "鼎麒水土保持技師事務所",
        "採購網址": "https://web.pcc.gov.tw/tps/atm/AtmAwardWithoutSso/QueryAtmAwardDetail?pkAtmMain=NzEwNjAzNDk=",
        "施工前照片": "https://i.ibb.co/mCDcbm8G/115-B-010-01.jpg",
        "施工後照片": "https://i.ibb.co/KjT4qjnS/115-B-010-02.jpg"
      }
    },
    {
      "type": "Feature",
      "geometry": {
        "type": "Point",
        "coordinates": [
          120.33766244032499,
          23.09735095809399
        ]
      },
      "properties": {
        "案件編號": "115年搶險搶修B工區第011案",
        "完工日期": 1150628,
        "x1": 182150,
        "y1": 2555217,
        "派工時機": null,
        "搶修類型": "護岸坍塌修補",
        "案件狀態": "已完工",
        "決標金額": 198467,
        "施工廠商": "其功營造工程股份有限公司",
        "監造廠商": "鼎麒水土保持技師事務所",
        "採購網址": "https://web.pcc.gov.tw/tps/atm/AtmAwardWithoutSso/QueryAtmAwardDetail?pkAtmMain=NzEwNjAzNDk=",
        "施工前照片": "https://i.ibb.co/QFKq7RHM/115-B-011-01.jpg",
        "施工後照片": "https://i.ibb.co/F4PXL9V5/115-B-011-02.jpg"
      }
    },
    {
      "type": "Feature",
      "geometry": {
        "type": "Point",
        "coordinates": [
          120.38946488778042,
          23.09994378011556
        ]
      },
      "properties": {
        "案件編號": "115年搶險搶修B工區第012案",
        "完工日期": 1150625,
        "x1": 187458,
        "y1": 2555481,
        "派工時機": null,
        "搶修類型": "樹木災害-倒樹鋸除",
        "案件狀態": "已完工",
        "決標金額": 20204,
        "施工廠商": "其功營造工程股份有限公司",
        "監造廠商": "鼎麒水土保持技師事務所",
        "採購網址": "https://web.pcc.gov.tw/tps/atm/AtmAwardWithoutSso/QueryAtmAwardDetail?pkAtmMain=NzEwNjAzNDk=",
        "施工前照片": "https://i.ibb.co/BH5z2rCt/115-B-012-01.jpg",
        "施工後照片": "https://i.ibb.co/b5Gpv9q1/115-B-012-02.jpg"
      }
    },
    {
      "type": "Feature",
      "geometry": {
        "type": "Point",
        "coordinates": [
          120.38902442379637,
          23.09157101596873
        ]
      },
      "properties": {
        "案件編號": "115年搶險搶修B工區第013案",
        "完工日期": 1150626,
        "x1": 187409,
        "y1": 2554554,
        "派工時機": null,
        "搶修類型": "設置交通錐",
        "案件狀態": "已完工",
        "決標金額": 19321,
        "施工廠商": "其功營造工程股份有限公司",
        "監造廠商": "鼎麒水土保持技師事務所",
        "採購網址": "https://web.pcc.gov.tw/tps/atm/AtmAwardWithoutSso/QueryAtmAwardDetail?pkAtmMain=NzEwNjAzNDk=",
        "施工前照片": "https://i.ibb.co/0TSV5m8/115-B-013-01.jpg",
        "施工後照片": "https://i.ibb.co/TMvRpzBr/115-B-013-02.jpg"
      }
    },
    {
      "type": "Feature",
      "geometry": {
        "type": "Point",
        "coordinates": [
          120.39086637739791,
          23.105204807962412
        ]
      },
      "properties": {
        "案件編號": "115年搶險搶修B工區第014案",
        "完工日期": 1150627,
        "x1": 187604,
        "y1": 2556063,
        "派工時機": null,
        "搶修類型": "邊坡土石滑落",
        "案件狀態": "已完工",
        "決標金額": 23537,
        "施工廠商": "其功營造工程股份有限公司",
        "監造廠商": "鼎麒水土保持技師事務所",
        "採購網址": "https://web.pcc.gov.tw/tps/atm/AtmAwardWithoutSso/QueryAtmAwardDetail?pkAtmMain=NzEwNjAzNDk=",
        "施工前照片": "https://i.ibb.co/ds5fdwch/115-B-014-01.jpg",
        "施工後照片": "https://i.ibb.co/HDbTVZgr/115-B-014-02.jpg"
      }
    },
    {
      "type": "Feature",
      "geometry": {
        "type": "Point",
        "coordinates": [
          120.39910800341315,
          23.095890064471735
        ]
      },
      "properties": {
        "案件編號": "115年搶險搶修B工區第015案",
        "完工日期": 1150627,
        "x1": 188444,
        "y1": 2555028,
        "派工時機": null,
        "搶修類型": "邊坡土石滑落",
        "案件狀態": "已完工",
        "決標金額": 23091,
        "施工廠商": "其功營造工程股份有限公司",
        "監造廠商": "鼎麒水土保持技師事務所",
        "採購網址": "https://web.pcc.gov.tw/tps/atm/AtmAwardWithoutSso/QueryAtmAwardDetail?pkAtmMain=NzEwNjAzNDk=",
        "施工前照片": "https://i.ibb.co/x87bk9Gq/115-B-015-01.jpg",
        "施工後照片": "https://i.ibb.co/zTxymM6v/115-B-015-02.jpg"
      }
    },
    {
      "type": "Feature",
      "geometry": {
        "type": "Point",
        "coordinates": [
          120.39919161741403,
          23.088061124899916
        ]
      },
      "properties": {
        "案件編號": "115年搶險搶修B工區第016案",
        "完工日期": 1152628,
        "x1": 188449,
        "y1": 2554161,
        "派工時機": null,
        "搶修類型": "路面易滑-泥濘清除",
        "案件狀態": "已完工",
        "決標金額": 23537,
        "施工廠商": "其功營造工程股份有限公司",
        "監造廠商": "鼎麒水土保持技師事務所",
        "採購網址": "https://web.pcc.gov.tw/tps/atm/AtmAwardWithoutSso/QueryAtmAwardDetail?pkAtmMain=NzEwNjAzNDk=",
        "施工前照片": "https://i.ibb.co/ZR5km693/115-B-016-01.jpg",
        "施工後照片": "https://i.ibb.co/6R5cCFKb/115-B-016-02.jpg"
      }
    },
    {
      "type": "Feature",
      "geometry": {
        "type": "Point",
        "coordinates": [
          120.36885425365459,
          23.09653959253705
        ]
      },
      "properties": {
        "案件編號": "115年搶險搶修B工區第017案",
        "完工日期": 1150628,
        "x1": 185345,
        "y1": 2555113,
        "派工時機": null,
        "搶修類型": "路面易滑-積土清除",
        "案件狀態": "已完工",
        "決標金額": 9215,
        "施工廠商": "其功營造工程股份有限公司",
        "監造廠商": "鼎麒水土保持技師事務所",
        "採購網址": "https://web.pcc.gov.tw/tps/atm/AtmAwardWithoutSso/QueryAtmAwardDetail?pkAtmMain=NzEwNjAzNDk=",
        "施工前照片": "https://i.ibb.co/gLMkhzpF/115-B-017-01.jpg",
        "施工後照片": "https://i.ibb.co/HT1QNm3V/115-B-017-02.jpg"
      }
    },
    {
      "type": "Feature",
      "geometry": {
        "type": "Point",
        "coordinates": [
          120.39741564262712,
          23.092325683521747
        ]
      },
      "properties": {
        "案件編號": "115年搶險搶修B工區第018案",
        "完工日期": 1150628,
        "x1": 188269,
        "y1": 2554634,
        "派工時機": null,
        "搶修類型": "路面易滑-積土清除",
        "案件狀態": "已完工",
        "決標金額": 55065,
        "施工廠商": "其功營造工程股份有限公司",
        "監造廠商": "鼎麒水土保持技師事務所",
        "採購網址": "https://web.pcc.gov.tw/tps/atm/AtmAwardWithoutSso/QueryAtmAwardDetail?pkAtmMain=NzEwNjAzNDk=",
        "施工前照片": "https://i.ibb.co/6JFwQk3g/115-B-018-01-01.jpg",
        "施工後照片": "https://i.ibb.co/dsnjYbTL/115-B-018-01-02.jpg"
      }
    },
    {
      "type": "Feature",
      "geometry": {
        "type": "Point",
        "coordinates": [
          120.39907835806848,
          23.095971224171056
        ]
      },
      "properties": {
        "案件編號": "115年搶險搶修B工區第018案",
        "完工日期": 1150628,
        "x1": 188441,
        "y1": 2555037,
        "派工時機": null,
        "搶修類型": "路面易滑-積土清除",
        "案件狀態": "已完工",
        "決標金額": 55065,
        "施工廠商": "其功營造工程股份有限公司",
        "監造廠商": "鼎麒水土保持技師事務所",
        "採購網址": "https://web.pcc.gov.tw/tps/atm/AtmAwardWithoutSso/QueryAtmAwardDetail?pkAtmMain=NzEwNjAzNDk=",
        "施工前照片": "https://i.ibb.co/Y7VMNNTh/115-B-018-02-01.jpg",
        "施工後照片": "https://i.ibb.co/3Hc7P2G/115-B-018-02-02.jpg"
      }
    },
    {
      "type": "Feature",
      "geometry": {
        "type": "Point",
        "coordinates": [
          120.40019260057429,
          23.10664021762328
        ]
      },
      "properties": {
        "案件編號": "115年搶險搶修B工區第019案",
        "完工日期": 1150630,
        "x1": 188560,
        "y1": 2556218,
        "派工時機": null,
        "搶修類型": "路面易滑-積土清除",
        "案件狀態": "已完工",
        "決標金額": 44184,
        "施工廠商": "其功營造工程股份有限公司",
        "監造廠商": "鼎麒水土保持技師事務所",
        "採購網址": "https://web.pcc.gov.tw/tps/atm/AtmAwardWithoutSso/QueryAtmAwardDetail?pkAtmMain=NzEwNjAzNDk=",
        "施工前照片": "https://i.ibb.co/vvdvzq3b/115-B-019-01-01.jpg",
        "施工後照片": "https://i.ibb.co/Z1740qGM/115-B-019-01-02.jpg"
      }
    },
    {
      "type": "Feature",
      "geometry": {
        "type": "Point",
        "coordinates": [
          120.40283153535113,
          23.108140219641573
        ]
      },
      "properties": {
        "案件編號": "115年搶險搶修B工區第019案",
        "完工日期": 1150630,
        "x1": 188831,
        "y1": 2556383,
        "派工時機": null,
        "搶修類型": "路面易滑-積土清除",
        "案件狀態": "已完工",
        "決標金額": 44184,
        "施工廠商": "其功營造工程股份有限公司",
        "監造廠商": "鼎麒水土保持技師事務所",
        "採購網址": "https://web.pcc.gov.tw/tps/atm/AtmAwardWithoutSso/QueryAtmAwardDetail?pkAtmMain=NzEwNjAzNDk=",
        "施工前照片": "https://i.ibb.co/7dz6fbvW/115-B-019-02-01.jpg",
        "施工後照片": "https://i.ibb.co/rRr83pCX/115-B-019-02-02.jpg"
      }
    },
    {
      "type": "Feature",
      "geometry": {
        "type": "Point",
        "coordinates": [
          120.35041197836291,
          23.091046654075853
        ]
      },
      "properties": {
        "案件編號": "115年搶險搶修B工區第020案",
        "完工日期": 1150629,
        "x1": 183453,
        "y1": 2554513,
        "派工時機": null,
        "搶修類型": "路面易滑-積土清除",
        "案件狀態": "已完工",
        "決標金額": 27533,
        "施工廠商": "其功營造工程股份有限公司",
        "監造廠商": "鼎麒水土保持技師事務所",
        "採購網址": "https://web.pcc.gov.tw/tps/atm/AtmAwardWithoutSso/QueryAtmAwardDetail?pkAtmMain=NzEwNjAzNDk=",
        "施工前照片": "https://i.ibb.co/7tBTyRs4/115-B-020-01-01.jpg,https://i.ibb.co/RkPjrVJw/115-B-020-02-01.jpg",
        "施工後照片": "https://i.ibb.co/DHp8Dp66/115-B-020-01-02.jpg,https://i.ibb.co/ynpS93DQ/115-B-020-02-02.jpg"
      }
    },
    {
      "type": "Feature",
      "geometry": {
        "type": "Point",
        "coordinates": [
          120.38951899865162,
          23.09012808470073
        ]
      },
      "properties": {
        "案件編號": "115年搶險搶修B工區第021案",
        "完工日期": 1150630,
        "x1": 187459,
        "y1": 2554394,
        "派工時機": null,
        "搶修類型": "路面易滑-積土清除",
        "案件狀態": "已完工",
        "決標金額": 23091,
        "施工廠商": "其功營造工程股份有限公司",
        "監造廠商": "鼎麒水土保持技師事務所",
        "採購網址": "https://web.pcc.gov.tw/tps/atm/AtmAwardWithoutSso/QueryAtmAwardDetail?pkAtmMain=NzEwNjAzNDk=",
        "施工前照片": "https://i.ibb.co/Xrq4LGYZ/115-B-021-01.jpg",
        "施工後照片": "https://i.ibb.co/twvRS0mN/115-B-021-02.jpg"
      }
    },
    {
      "type": "Feature",
      "geometry": {
        "type": "Point",
        "coordinates": [
          120.36644694195556,
          23.09573528921959
        ]
      },
      "properties": {
        "案件編號": "115年搶險搶修B工區第023案",
        "完工日期": 1150701,
        "x1": 185098,
        "y1": 2555025,
        "派工時機": null,
        "搶修類型": "路面易滑-竹葉清除",
        "案件狀態": "已完工",
        "決標金額": 12324,
        "施工廠商": "其功營造工程股份有限公司",
        "監造廠商": "鼎麒水土保持技師事務所",
        "採購網址": "https://web.pcc.gov.tw/tps/atm/AtmAwardWithoutSso/QueryAtmAwardDetail?pkAtmMain=NzEwNjAzNDk=",
        "施工前照片": "https://i.ibb.co/YBkZ0tS2/115-B-023-01.jpg",
        "施工後照片": "https://i.ibb.co/WW2zZBs5/115-B-023-02.jpg"
      }
    },
    {
      "type": "Feature",
      "geometry": {
        "type": "Point",
        "coordinates": [
          120.36192063479535,
          23.095103004960503
        ]
      },
      "properties": {
        "案件編號": "115年搶險搶修B工區第024案",
        "完工日期": 1150703,
        "x1": 184634,
        "y1": 2554957,
        "派工時機": null,
        "搶修類型": "排水孔堵塞",
        "案件狀態": "已完工",
        "決標金額": 43516,
        "施工廠商": "其功營造工程股份有限公司",
        "監造廠商": "鼎麒水土保持技師事務所",
        "採購網址": "https://web.pcc.gov.tw/tps/atm/AtmAwardWithoutSso/QueryAtmAwardDetail?pkAtmMain=NzEwNjAzNDk=",
        "施工前照片": "https://i.ibb.co/d4Vd0BhR/115-B-024-01-01.jpg,https://i.ibb.co/Q3VXxYC0/115-B-024-02-01.jpg",
        "施工後照片": "https://i.ibb.co/2YMJMwVd/115-B-024-01-02.jpg,https://i.ibb.co/fGxNHVgF/115-B-024-02-02.jpg"
      }
    },
    {
      "type": "Feature",
      "geometry": {
        "type": "Point",
        "coordinates": [
          120.38119630377841,
          23.095766695908896
        ]
      },
      "properties": {
        "案件編號": "115年搶險搶修B工區第025案",
        "完工日期": 1150712,
        "x1": 186609,
        "y1": 2555022,
        "派工時機": null,
        "搶修類型": "樹木災害-倒竹鋸除",
        "案件狀態": "已完工",
        "決標金額": 34080,
        "施工廠商": "其功營造工程股份有限公司",
        "監造廠商": "鼎麒水土保持技師事務所",
        "採購網址": "https://web.pcc.gov.tw/tps/atm/AtmAwardWithoutSso/QueryAtmAwardDetail?pkAtmMain=NzEwNjAzNDk=",
        "施工前照片": "https://i.ibb.co/tVhGDXn/115-B-025-01.jpg",
        "施工後照片": "https://i.ibb.co/MxHLB8v3/115-B-025-02.jpg"
      }
    },
    {
      "type": "Feature",
      "geometry": {
        "type": "Point",
        "coordinates": [
          120.3787704791162,
          23.092605609003815
        ]
      },
      "properties": {
        "案件編號": "115年搶險搶修B工區第026案",
        "完工日期": 1150721,
        "x1": 186359,
        "y1": 2554673,
        "派工時機": null,
        "搶修類型": "樹木災害-倒樹鋸除",
        "案件狀態": "已完工",
        "決標金額": 31084,
        "施工廠商": "其功營造工程股份有限公司",
        "監造廠商": "鼎麒水土保持技師事務所",
        "採購網址": "https://web.pcc.gov.tw/tps/atm/AtmAwardWithoutSso/QueryAtmAwardDetail?pkAtmMain=NzEwNjAzNDk=",
        "施工前照片": "https://i.ibb.co/ynRrSnDB/115-B-026-01-01.jpg,https://i.ibb.co/nqXQBYyX/115-B-026-02-01.jpg",
        "施工後照片": "https://i.ibb.co/Y4FjHh5M/115-B-026-01-02.jpg,https://i.ibb.co/M57BsC6r/115-B-026-02-02.jpg"
      }
    },
    {
      "type": "Feature",
      "geometry": {
        "type": "Point",
        "coordinates": [
          120.37725294619128,
          23.097828149674044
        ]
      },
      "properties": {
        "案件編號": "115年搶險搶修B工區第027案",
        "完工日期": 1150721,
        "x1": 186206,
        "y1": 2555252,
        "派工時機": null,
        "搶修類型": "路面易滑-竹葉清除",
        "案件狀態": "已完工",
        "決標金額": 20317,
        "施工廠商": "其功營造工程股份有限公司",
        "監造廠商": "鼎麒水土保持技師事務所",
        "採購網址": "https://web.pcc.gov.tw/tps/atm/AtmAwardWithoutSso/QueryAtmAwardDetail?pkAtmMain=NzEwNjAzNDk=",
        "施工前照片": "https://i.ibb.co/Mkp2nC6q/115-B-027-01.jpg",
        "施工後照片": "https://i.ibb.co/G34gvgrQ/115-B-027-02.jpg"
      }
    },
    {
      "type": "Feature",
      "geometry": {
        "type": "Point",
        "coordinates": [
          120.34855369253522,
          23.112052307049808
        ]
      },
      "properties": {
        "案件編號": "115年搶險搶修B工區第028案",
        "完工日期": 1150722,
        "x1": 183273,
        "y1": 2556840,
        "派工時機": null,
        "搶修類型": "排水溝-掏空填補",
        "案件狀態": "已完工",
        "決標金額": 26534,
        "施工廠商": "其功營造工程股份有限公司",
        "監造廠商": "鼎麒水土保持技師事務所",
        "採購網址": "https://web.pcc.gov.tw/tps/atm/AtmAwardWithoutSso/QueryAtmAwardDetail?pkAtmMain=NzEwNjAzNDk=",
        "施工前照片": "https://i.ibb.co/PG94Bjc2/115-B-028-01.jpg",
        "施工後照片": "https://i.ibb.co/MKpF89B/115-B-028-02.jpg"
      }
    },
    {
      "type": "Feature",
      "geometry": {
        "type": "Point",
        "coordinates": [
          120.388366303821,
          23.094638760616
        ]
      },
      "properties": {
        "案件編號": "115年搶險搶修B工區第029案",
        "完工日期": 1150727,
        "x1": 187343,
        "y1": 2554894,
        "派工時機": null,
        "搶修類型": "樹木災害-危竹鋸除",
        "案件狀態": "已完工",
        "決標金額": 17207,
        "施工廠商": "其功營造工程股份有限公司",
        "監造廠商": "鼎麒水土保持技師事務所",
        "採購網址": "https://web.pcc.gov.tw/tps/atm/AtmAwardWithoutSso/QueryAtmAwardDetail?pkAtmMain=NzEwNjAzNDk=",
        "施工前照片": "https://i.ibb.co/hJw6jfdW/115-B-029-01.jpg",
        "施工後照片": "https://i.ibb.co/x8wcd8YX/115-B-029-02.jpg"
      }
    },
    {
      "type": "Feature",
      "geometry": {
        "type": "Point",
        "coordinates": [
          120.37617038878422,
          23.084928665193203
        ]
      },
      "properties": {
        "案件編號": "115年搶險搶修B工區第030案",
        "完工日期": 1150729,
        "x1": 186089,
        "y1": 2553824,
        "派工時機": null,
        "搶修類型": "樹木災害-危竹鋸除",
        "案件狀態": "已完工",
        "決標金額": 67938,
        "施工廠商": "其功營造工程股份有限公司",
        "監造廠商": "鼎麒水土保持技師事務所",
        "採購網址": "https://web.pcc.gov.tw/tps/atm/AtmAwardWithoutSso/QueryAtmAwardDetail?pkAtmMain=NzEwNjAzNDk=",
        "施工前照片": "https://i.ibb.co/tMZs0rBf/115-B-030-01-01.jpg,https://i.ibb.co/QjxK4qgD/115-B-030-02-01.jpg",
        "施工後照片": "https://i.ibb.co/sdWCWsT2/115-B-030-01-02.jpg,https://i.ibb.co/bgd32gTJ/115-B-030-02-02.jpg"
      }
    },
    {
      "type": "Feature",
      "geometry": {
        "type": "Point",
        "coordinates": [
          120.3408080913081,
          23.10485016382898
        ]
      },
      "properties": {
        "案件編號": "115年搶險搶修B工區第031案",
        "完工日期": 1150730,
        "x1": 182476,
        "y1": 2556046,
        "派工時機": null,
        "搶修類型": "路面修復-路緣坑洞修補",
        "案件狀態": "已完工",
        "決標金額": 23537,
        "施工廠商": "其功營造工程股份有限公司",
        "監造廠商": "鼎麒水土保持技師事務所",
        "採購網址": "https://web.pcc.gov.tw/tps/atm/AtmAwardWithoutSso/QueryAtmAwardDetail?pkAtmMain=NzEwNjAzNDk=",
        "施工前照片": "https://i.ibb.co/rf7LTFDS/115-B-031-01.jpg",
        "施工後照片": "https://i.ibb.co/hFxv8DR5/115-B-031-02.jpg"
      }
    }
  ]
}