{
  "type": "FeatureCollection",
  "name": "Converted_Data",
  "crs": {
    "type": "name",
    "properties": {
      "name": "urn:ogc:def:crs:OGC:1.3:CRS84"
    }
  },
  "features": [
    {
      "type": "Feature",
      "geometry": {
        "type": "Point",
        "coordinates": [
          120.34353812600176,
          23.093483476851148
        ]
      },
      "properties": {
        "案件編號": "115008-明南段958地號農路改善工程",
        "完工日期": 1150422,
        "x1": 182750,
        "y1": 2554786,
        "派工時機": "一般案件",
        "搶修類型": "瀝青混凝土路面",
        "案件狀態": "已完工",
        "決標金額": 462000,
        "施工廠商": "金定土木包工業",
        "監造廠商": "鼎麒水土保持技師事務所",
        "採購網址": "https://web.pcc.gov.tw/tps/atm/AtmAwardWithoutSso/QueryAtmAwardDetail?pkAtmMain=NzExMTg4MzA=",
        "施工前照片": "https://i.ibb.co/cXsjYbgw/115008-01.jpg",
        "施工後照片": "https://i.ibb.co/zTVZ7Nyj/115008-02.jpg"
      }
    },
    {
      "type": "Feature",
      "geometry": {
        "type": "Point",
        "coordinates": [
          120.35427841113483,
          23.092868558657475
        ]
      },
      "properties": {
        "案件編號": "115010-平陽里及新莊里農路排水改善工程",
        "完工日期": 1150616,
        "x1": 183850,
        "y1": 2554713,
        "派工時機": "一般案件",
        "搶修類型": "矩形排水溝",
        "案件狀態": "已完工",
        "決標金額": 1115000,
        "施工廠商": "鼎瀚土木工程有限公司",
        "監造廠商": "丞信工程顧問有限公司",
        "採購網址": "https://web.pcc.gov.tw/tps/atm/AtmAwardWithoutSso/QueryAtmAwardDetail?pkAtmMain=NzExMzM5Nzc=",
        "施工前照片": "https://i.ibb.co/TVKXyn3/115010-01.jpg",
        "施工後照片": "https://i.ibb.co/DgzT3wXR/115010-01-02.jpg"
      }
    },
    {
      "type": "Feature",
      "geometry": {
        "type": "Point",
        "coordinates": [
          120.37463758988474,
          23.08923003870679
        ]
      },
      "properties": {
        "案件編號": "115010-平陽里及新莊里農路排水改善工程",
        "完工日期": 1150616,
        "x1": 185934,
        "y1": 2554301,
        "派工時機": "一般案件",
        "搶修類型": "瀝青混凝土路面",
        "案件狀態": "已完工",
        "決標金額": 1115000,
        "施工廠商": "鼎瀚土木工程有限公司",
        "監造廠商": "丞信工程顧問有限公司",
        "採購網址": "https://web.pcc.gov.tw/tps/atm/AtmAwardWithoutSso/QueryAtmAwardDetail?pkAtmMain=NzExMzM5Nzc=",
        "施工前照片": "https://i.ibb.co/CpB4h5c2/115010-02-01-01.jpg",
        "施工後照片": "https://i.ibb.co/h1BQJN2X/115010-02-02.jpg"
      }
    },
    {
      "type": "Feature",
      "geometry": {
        "type": "Point",
        "coordinates": [
          120.36745332859613,
          23.080929710570928
        ]
      },
      "properties": {
        "案件編號": "115012-豐德里379地號農路改善工程",
        "完工日期": 1150710,
        "x1": 185194,
        "y1": 2553385,
        "派工時機": "一般案件",
        "搶修類型": "擋土牆,混凝土路面,塊狀護欄",
        "案件狀態": "已完工",
        "決標金額": 1170000,
        "施工廠商": "福森土木包工業",
        "監造廠商": "丞信工程顧問有限公司",
        "採購網址": "https://web.pcc.gov.tw/tps/atm/AtmAwardWithoutSso/QueryAtmAwardDetail?pkAtmMain=NzExNjI0NDE=",
        "施工前照片": "https://i.ibb.co/qtmzTnJ/115012-01.jpg",
        "施工後照片": "https://i.ibb.co/S4wJVrd4/115012-02.jpg"
      }
    },
    {
      "type": "Feature",
      "geometry": {
        "type": "Point",
        "coordinates": [
          120.3901621175021,
          23.099025387932592
        ]
      },
      "properties": {
        "案件編號": "115013-玉峰里清水寺往中坑農側溝及南洲里38之100號農路改善工程",
        "完工日期": 1150731,
        "x1": 187529,
        "y1": 2555379,
        "派工時機": "一般案件",
        "搶修類型": "矩形溝,矩形暗溝",
        "案件狀態": "已完工",
        "決標金額": 1100000,
        "施工廠商": "元第土木包工業",
        "監造廠商": "鼎麒水土保持技師事務所",
        "採購網址": "https://web.pcc.gov.tw/tps/atm/AtmAwardWithoutSso/QueryAtmAwardDetail?pkAtmMain=NzExNTU1MjI=",
        "施工前照片": "https://i.ibb.co/j9Gy2Dd1/115013-01-01.jpg",
        "施工後照片": "https://i.ibb.co/ks6D2J2j/115013-01-02.jpg"
      }
    },
    {
      "type": "Feature",
      "geometry": {
        "type": "Point",
        "coordinates": [
          120.35053741852444,
          23.09947236881734
        ]
      },
      "properties": {
        "案件編號": "115013-玉峰里清水寺往中坑農側溝及南洲里38之100號農路改善工程",
        "完工日期": 1150731,
        "x1": 183470,
        "y1": 2555446,
        "派工時機": "一般案件",
        "搶修類型": "瀝青混凝土路面",
        "案件狀態": "已完工",
        "決標金額": 1100000,
        "施工廠商": "元第土木包工業",
        "監造廠商": "鼎麒水土保持技師事務所",
        "採購網址": "https://web.pcc.gov.tw/tps/atm/AtmAwardWithoutSso/QueryAtmAwardDetail?pkAtmMain=NzExNTU1MjI=",
        "施工前照片": "https://i.ibb.co/gFRYLszf/115013-02-01.jpg",
        "施工後照片": "https://i.ibb.co/wFB4dDLs/115013-02-02.jpg"
      }
    },
    {
      "type": "Feature",
      "geometry": {
        "type": "Point",
        "coordinates": [
          120.3675092741753,
          23.087747778586664
        ]
      },
      "properties": {
        "案件編號": "115014-楊柳颱風山上區舊178道路災後復建工程",
        "完工日期": null,
        "x1": 185203,
        "y1": 2554140,
        "派工時機": "一般案件",
        "搶修類型": "擋土牆,塊狀護欄",
        "案件狀態": "已派工/施工中",
        "決標金額": 29892000,
        "施工廠商": "競捷營造股份有限公司",
        "監造廠商": "丞信工程顧問有限公司",
        "採購網址": "https://web.pcc.gov.tw/tps/atm/AtmAwardWithoutSso/QueryAtmAwardDetail?pkAtmMain=NzExNzY1Njk=",
        "施工前照片": "https://i.ibb.co/G4Dbg8D3/115014-01.jpg",
        "施工後照片": null
      }
    },
    {
      "type": "Feature",
      "geometry": {
        "type": "Point",
        "coordinates": [
          120.35516345080045,
          23.09968096772081
        ]
      },
      "properties": {
        "案件編號": "115016-山上國小側門旁至16之2號前道路改善工程",
        "完工日期": null,
        "x1": 183944,
        "y1": 2555467,
        "派工時機": "一般案件",
        "搶修類型": "瀝青混凝土路面",
        "案件狀態": "已派工/施工中",
        "決標金額": 610000,
        "施工廠商": "再生營造有限公司",
        "監造廠商": "鼎麒水土保持技師事務所",
        "採購網址": "https://web.pcc.gov.tw/tps/atm/AtmAwardWithoutSso/QueryAtmAwardDetail?pkAtmMain=NzExNjc0MDA=",
        "施工前照片": "https://i.ibb.co/h1ctGCDY/115016-01.jpg",
        "施工後照片": null
      }
    },
    {
      "type": "Feature",
      "geometry": {
        "type": "Point",
        "coordinates": [
          120.35707696116432,
          23.099634591114363
        ]
      },
      "properties": {
        "案件編號": "115017-115年山上區公兒二公園景觀改善工程",
        "完工日期": 1150704,
        "x1": 184140,
        "y1": 2555461,
        "派工時機": "一般案件",
        "搶修類型": "搖搖樂,地墊更換,攝影機",
        "案件狀態": "已完工",
        "決標金額": 437800,
        "施工廠商": "和晟營造有限公司",
        "監造廠商": "丞信工程顧問有限公司",
        "採購網址": "https://web.pcc.gov.tw/tps/atm/AtmAwardWithoutSso/QueryAtmAwardDetail?pkAtmMain=NzExNjc1NTk=",
        "施工前照片": "https://i.ibb.co/tPJ9CWsk/115017-01.jpg",
        "施工後照片": "https://i.ibb.co/FkMmFYyX/115017-02.jpg,https://i.ibb.co/pjPvR1zq/115017-03.jpg,https://i.ibb.co/4ZKyqFCS/115017-04.jpg,https://i.ibb.co/60btSgYB/115017-05.jpg,https://i.ibb.co/YFHR6dQv/115017-06.jpg,https://i.ibb.co/wh9Qy9wY/115017-07.jpg,https://i.ibb.co/gZm6XFRM/115017-08.jpg,https://i.ibb.co/ksVHTZY0/115017-09.jpg,"
      }
    },
    {
      "type": "Feature",
      "geometry": {
        "type": "Point",
        "coordinates": [
          120.34491298603187,
          23.089759705800386
        ]
      },
      "properties": {
        "案件編號": "115018-丹娜絲颱風山上區明南段1003地號旁排水災後復建工程",
        "完工日期": null,
        "x1": 182889,
        "y1": 2554373,
        "派工時機": "一般案件",
        "搶修類型": "排水溝牆身修復",
        "案件狀態": "已派工/施工中",
        "決標金額": 4520000,
        "施工廠商": "通友營造股份有限公司",
        "監造廠商": null,
        "採購網址": "https://web.pcc.gov.tw/tps/atm/AtmAwardWithoutSso/QueryAtmAwardDetail?pkAtmMain=NzExODM3MzU=",
        "施工前照片": "https://i.ibb.co/C308cfRF/115018-01.jpg",
        "施工後照片": null
      }
    },
    {
      "type": "Feature",
      "geometry": {
        "type": "Point",
        "coordinates": [
          120.38827356506707,
          23.091405563989884
        ]
      },
      "properties": {
        "案件編號": "115022-牛稠埔段306-1地號道路下邊坡改善工程",
        "完工日期": null,
        "x1": 187332,
        "y1": 2554536,
        "派工時機": "一般案件",
        "搶修類型": "擋土牆,紐澤西護欄",
        "案件狀態": "已派工/施工中",
        "決標金額": 920000,
        "施工廠商": " 裕軒土木包工業",
        "監造廠商": "鼎麒水土保持技師事務所",
        "採購網址": "https://web.pcc.gov.tw/tps/atm/AtmAwardWithoutSso/QueryAtmAwardDetail?pkAtmMain=NzExOTU5MDg=",
        "施工前照片": "https://i.ibb.co/JwDhsh05/105022-01.jpg",
        "施工後照片": null
      }
    },
    {
      "type": "Feature",
      "geometry": {
        "type": "Point",
        "coordinates": [
          120.37848956049854,
          23.08576859316433
        ]
      },
      "properties": {
        "案件編號": "115024-平陽里仙控麻農路擋土牆改善工程",
        "完工日期": null,
        "x1": 186327,
        "y1": 2553916,
        "派工時機": "一般案件",
        "搶修類型": "擋土牆,混凝土路面,連續式護欄",
        "案件狀態": "已派工/施工中",
        "決標金額": 1300000,
        "施工廠商": "尚林營造有限公司",
        "監造廠商": "丞信工程顧問有限公司",
        "採購網址": "https://web.pcc.gov.tw/tps/atm/AtmAwardWithoutSso/QueryAtmAwardDetail?pkAtmMain=NzEyMjA0ODY=",
        "施工前照片": "https://i.ibb.co/5Xj7ZjyY/115024-01.jpg",
        "施工後照片": null
      }
    },
    {
      "type": "Feature",
      "geometry": {
        "type": "Point",
        "coordinates": [
          120.34919042692454,
          23.105526094942405
        ]
      },
      "properties": {
        "案件編號": "115025-明和里朝天宮廟旁社區道路改善工程",
        "完工日期": null,
        "x1": 183335,
        "y1": 2556117,
        "派工時機": "一般案件",
        "搶修類型": "瀝青混凝土路面",
        "案件狀態": "已派工/施工中",
        "決標金額": 609000,
        "施工廠商": "廣泰營造有限公司",
        "監造廠商": "鼎麒水土保持技師事務所",
        "採購網址": "https://web.pcc.gov.tw/tps/atm/AtmAwardWithoutSso/QueryAtmAwardDetail?pkAtmMain=NzEyMzI4NjE=",
        "施工前照片": "https://i.ibb.co/vvQhYn6L/115025-01-01-01.jpg,https://i.ibb.co/BHgjH9PB/115025-01-02-01.jpg",
        "施工後照片": null
      }
    },
    {
      "type": "Feature",
      "geometry": {
        "type": "Point",
        "coordinates": [
          120.34917714015735,
          23.10625748716903
        ]
      },
      "properties": {
        "案件編號": "115025-明和里朝天宮廟旁社區道路改善工程",
        "完工日期": null,
        "x1": 183334,
        "y1": 2556198,
        "派工時機": "一般案件",
        "搶修類型": "瀝青混凝土路面",
        "案件狀態": "已派工/施工中",
        "決標金額": 609000,
        "施工廠商": "廣泰營造有限公司",
        "監造廠商": "鼎麒水土保持技師事務所",
        "採購網址": "https://web.pcc.gov.tw/tps/atm/AtmAwardWithoutSso/QueryAtmAwardDetail?pkAtmMain=NzEyMzI4NjE=",
        "施工前照片": "https://i.ibb.co/G3bPVRvp/115025-02-01-01.jpg,https://i.ibb.co/67HV4qt8/115025-02-02-01.jpg",
        "施工後照片": null
      }
    },
    {
      "type": "Feature",
      "geometry": {
        "type": "Point",
        "coordinates": [
          120.3497910998547,
          23.106476742778653
        ]
      },
      "properties": {
        "案件編號": "115025-明和里朝天宮廟旁社區道路改善工程",
        "完工日期": null,
        "x1": 183397,
        "y1": 2556222,
        "派工時機": "一般案件",
        "搶修類型": "瀝青混凝土路面",
        "案件狀態": "已派工/施工中",
        "決標金額": 609000,
        "施工廠商": "廣泰營造有限公司",
        "監造廠商": "鼎麒水土保持技師事務所",
        "採購網址": "https://web.pcc.gov.tw/tps/atm/AtmAwardWithoutSso/QueryAtmAwardDetail?pkAtmMain=NzEyMzI4NjE=",
        "施工前照片": "https://i.ibb.co/6csC2VVc/115025-03-01-01.jpg,https://i.ibb.co/27vRPfTV/115025-03-02-01.jpg"
      }
    }
  ]
}